ONEWEB-0230             
1 48769U 21045C   23284.77532834  .00000343  00000+0  87750-3 0  9993
2 48769  87.8944  94.2514 0001777  88.1415 271.9919 13.15553738117008
ONEWEB-0237             
1 48770U 21045D   23284.84079491  .00000100  00000+0  23285-3 0  9992
2 48770  87.8945  94.1568 0002033  76.1387 283.9969 13.15545320116757
ONEWEB-0235             
1 48771U 21045E   23284.50912183 -.00000021  00000+0 -89498-4 0  9993
2 48771  87.8936  94.2523 0002328  71.3179 288.8204 13.15546395115571
ONEWEB-0242             
1 48772U 21045F   23284.50279157 -.00000038  00000+0 -13498-3 0  9995
2 48772  87.8937  94.2441 0001919  84.4172 275.7177 13.15547966115619
ONEWEB-0241             
1 48773U 21045G   23284.56616233 -.00000135  00000+0 -39297-3 0  9995
2 48773  87.8949  94.2549 0001506  70.1547 289.9746 13.15551508115539
ONEWEB-0243             
1 48774U 21045H   23284.74997445  .00000015  00000+0  59898-5 0  9999
2 48774  87.8944  94.1751 0002141  79.2455 280.8916 13.15547829116714
ONEWEB-0222             
1 48775U 21045J   23284.73938757 -.00000371  00000+0 -10194-2 0  9990
2 48775  87.8936  94.2110 0001692  76.3865 283.7453 13.15548133116749
ONEWEB-0244             
1 48776U 21045K   23284.53236064  .00000141  00000+0  34059-3 0  9991
2 48776  87.8934  94.2360 0001921  87.1217 273.0133 13.15545597117289
